{
  "norad_id": 68390,
  "name": "STARLINK-37193",
  "history": [
    {
      "epoch": "2026-04-02T18:00:01.999296Z",
      "apogee_km": 267.9089929792772,
      "perigee_km": 267.5328374212759,
      "latitude_deg": 13.279564773228442,
      "longitude_deg": -45.834491695626234,
      "height_km": 270.00163199634,
      "semi_major_axis_km": 6645.857915200276,
      "eccentricity": 2.83e-05,
      "inclination_deg": 97.2826,
      "raan_deg": 233.5495,
      "arg_perigee_deg": 136.7849,
      "mean_anomaly_deg": 29.7854,
      "mean_motion_rev_day": 16.02419362
    }
  ]
}